[{"OBJECT_NAME":"STARLINK-1054","OBJECT_ID":"2019-074AY","EPOCH":"2025-10-20T08:00:03.000384","MEAN_MOTION":15.82800587,"ECCENTRICITY":0.00014427,"INCLINATION":53.0377,"RA_OF_ASC_NODE":85.4145,"ARG_OF_PERICENTER":219.2231,"MEAN_ANOMALY":172.6533,"EPHEMERIS_TYPE":0,"CLASSIFICATION_TYPE":"U","NORAD_CAT_ID":44759,"ELEMENT_SET_NO":999,"REV_AT_EPOCH":597,"BSTAR":0.0021690863,"MEAN_MOTION_DOT":0.00495339,"MEAN_MOTION_DDOT":0},{"OBJECT_NAME":"STARLINK-1056","OBJECT_ID":"2019-074BA","EPOCH":"2025-10-20T08:00:03.000384","MEAN_MOTION":15.9534643,"ECCENTRICITY":7.816e-5,"INCLINATION":53.0365,"RA_OF_ASC_NODE":72.2111,"ARG_OF_PERICENTER":14.6208,"MEAN_ANOMALY":97.0022,"EPHEMERIS_TYPE":0,"CLASSIFICATION_TYPE":"U","NORAD_CAT_ID":44761,"ELEMENT_SET_NO":999,"REV_AT_EPOCH":601,"BSTAR":0.0012949191,"MEAN_MOTION_DOT":0.00521695,"MEAN_MOTION_DDOT":0.00012227133},{"OBJECT_NAME":"STARLINK-1060","OBJECT_ID":"2019-074BE","EPOCH":"2025-10-20T07:14:58.187040","MEAN_MOTION":15.60188771,"ECCENTRICITY":6.542e-5,"INCLINATION":53.0538,"RA_OF_ASC_NODE":105.6975,"ARG_OF_PERICENTER":18.419,"MEAN_ANOMALY":341.6846,"EPHEMERIS_TYPE":0,"CLASSIFICATION_TYPE":"U","NORAD_CAT_ID":44765,"ELEMENT_SET_NO":999,"REV_AT_EPOCH":32746,"BSTAR":0.0008228633,"MEAN_MOTION_DOT":0.0006829,"MEAN_MOTION_DDOT":0},{"OBJECT_NAME":"STARLINK-1063","OBJECT_ID":"2019-074BH","EPOCH":"2025-10-20T02:25:35.349312","MEAN_MOTION":15.06411734,"ECCENTRICITY":0.00013554,"INCLINATION":53.0529,"RA_OF_ASC_NODE":137.7461,"ARG_OF_PERICENTER":90.1057,"MEAN_ANOMALY":270.0088,"EPHEMERIS_TYPE":0,"CLASSIFICATION_TYPE":"U","NORAD_CAT_ID":44768,"ELEMENT_SET_NO":999,"REV_AT_EPOCH":32701,"BSTAR":0.00021806417,"MEAN_MOTION_DOT":2.969e-5,"MEAN_MOTION_DDOT":0},{"OBJECT_NAME":"STARLINK-1067","OBJECT_ID":"2019-074BL","EPOCH":"2025-10-20T02:09:40.827168","MEAN_MOTION":15.06407456,"ECCENTRICITY":0.000145,"INCLINATION":53.0521,"RA_OF_ASC_NODE":137.7964,"ARG_OF_PERICENTER":99.1621,"MEAN_ANOMALY":260.9532,"EPHEMERIS_TYPE":0,"CLASSIFICATION_TYPE":"U","NORAD_CAT_ID":44771,"ELEMENT_SET_NO":999,"REV_AT_EPOCH":32700,"BSTAR":0.00036207012,"MEAN_MOTION_DOT":5.117e-5,"MEAN_MOTION_DDOT":0},{"OBJECT_NAME":"STARLINK-1068","OBJECT_ID":"2019-074BM","EPOCH":"2025-10-20T00:20:52.207296","MEAN_MOTION":15.06392785,"ECCENTRICITY":0.00012976,"INCLINATION":53.0534,"RA_OF_ASC_NODE":118.1342,"ARG_OF_PERICENTER":89.542,"MEAN_ANOMALY":270.5717,"EPHEMERIS_TYPE":0,"CLASSIFICATION_TYPE":"U","NORAD_CAT_ID":44772,"ELEMENT_SET_NO":999,"REV_AT_EPOCH":32726,"BSTAR":-8.6815375e-5,"MEAN_MOTION_DOT":-1.574e-5,"MEAN_MOTION_DDOT":0},{"OBJECT_NAME":"STARLINK-1112","OBJECT_ID":"2020-001M","EPOCH":"2025-10-20T08:00:03.000384","MEAN_MOTION":15.52707185,"ECCENTRICITY":0.00041565,"INCLINATION":53.0511,"RA_OF_ASC_NODE":218.2422,"ARG_OF_PERICENTER":111.99,"MEAN_ANOMALY":243.623,"EPHEMERIS_TYPE":0,"CLASSIFICATION_TYPE":"U","NORAD_CAT_ID":44925,"ELEMENT_SET_NO":999,"REV_AT_EPOCH":592,"BSTAR":0.0021035363,"MEAN_MOTION_DOT":0.00133895,"MEAN_MOTION_DDOT":0},{"OBJECT_NAME":"STARLINK-1114","OBJECT_ID":"2020-001P","EPOCH":"2025-10-20T04:27:40.067424","MEAN_MOTION":15.06415955,"ECCENTRICITY":0.00015585,"INCLINATION":53.0539,"RA_OF_ASC_NODE":257.3666,"ARG_OF_PERICENTER":89.1875,"MEAN_ANOMALY":270.9292,"EPHEMERIS_TYPE":0,"CLASSIFICATION_TYPE":"U","NORAD_CAT_ID":44927,"ELEMENT_SET_NO":999,"REV_AT_EPOCH":31867,"BSTAR":0.00037668224,"MEAN_MOTION_DOT":5.336e-5,"MEAN_MOTION_DDOT":0},{"OBJECT_NAME":"STARLINK-1123","OBJECT_ID":"2020-001S","EPOCH":"2025-10-20T04:48:53.169696","MEAN_MOTION":15.06420856,"ECCENTRICITY":0.00014325,"INCLINATION":53.0535,"RA_OF_ASC_NODE":257.2978,"ARG_OF_PERICENTER":89.768,"MEAN_ANOMALY":270.3473,"EPHEMERIS_TYPE":0,"CLASSIFICATION_TYPE":"U","NORAD_CAT_ID":44930,"ELEMENT_SET_NO":999,"REV_AT_EPOCH":31867,"BSTAR":0.00069538456,"MEAN_MOTION_DOT":0.00010097,"MEAN_MOTION_DDOT":0},{"OBJECT_NAME":"STARLINK-1144","OBJECT_ID":"2020-001V","EPOCH":"2025-10-20T08:00:03.000384","MEAN_MOTION":15.57326085,"ECCENTRICITY":0.00129447,"INCLINATION":53.0441,"RA_OF_ASC_NODE":195.6962,"ARG_OF_PERICENTER":58.2736,"MEAN_ANOMALY":90.3065,"EPHEMERIS_TYPE":0,"CLASSIFICATION_TYPE":"U","NORAD_CAT_ID":44933,"ELEMENT_SET_NO":999,"REV_AT_EPOCH":593,"BSTAR":0.0015777972,"MEAN_MOTION_DOT":0.00119061,"MEAN_MOTION_DDOT":0},{"OBJECT_NAME":"STARLINK-1091","OBJECT_ID":"2020-001AC","EPOCH":"2025-10-20T08:00:03.000384","MEAN_MOTION":15.92948592,"ECCENTRICITY":0.00019387,"INCLINATION":53.0363,"RA_OF_ASC_NODE":174.8637,"ARG_OF_PERICENTER":179.6548,"MEAN_ANOMALY":100.4451,"EPHEMERIS_TYPE":0,"CLASSIFICATION_TYPE":"U","NORAD_CAT_ID":44940,"ELEMENT_SET_NO":999,"REV_AT_EPOCH":574,"BSTAR":0.00094271245,"MEAN_MOTION_DOT":0.00333361,"MEAN_MOTION_DDOT":5.3682585e-5},{"OBJECT_NAME":"STARLINK-1094","OBJECT_ID":"2020-001AD","EPOCH":"2025-10-20T03:31:55.013664","MEAN_MOTION":15.06449003,"ECCENTRICITY":0.00017439,"INCLINATION":53.0551,"RA_OF_ASC_NODE":237.5389,"ARG_OF_PERICENTER":100.1321,"MEAN_ANOMALY":259.9865,"EPHEMERIS_TYPE":0,"CLASSIFICATION_TYPE":"U","NORAD_CAT_ID":44941,"ELEMENT_SET_NO":999,"REV_AT_EPOCH":31894,"BSTAR":0.00064361066,"MEAN_MOTION_DOT":9.331e-5,"MEAN_MOTION_DDOT":0},{"OBJECT_NAME":"STARLINK-1096","OBJECT_ID":"2020-001AE","EPOCH":"2025-10-20T08:00:03.000384","MEAN_MOTION":15.85534431,"ECCENTRICITY":0.00065083,"INCLINATION":52.9902,"RA_OF_ASC_NODE":2.091,"ARG_OF_PERICENTER":5.1779,"MEAN_ANOMALY":162.6656,"EPHEMERIS_TYPE":0,"CLASSIFICATION_TYPE":"U","NORAD_CAT_ID":44942,"ELEMENT_SET_NO":999,"REV_AT_EPOCH":601,"BSTAR":0.0008179097,"MEAN_MOTION_DOT":0.00205492,"MEAN_MOTION_DDOT":0},{"OBJECT_NAME":"STARLINK-1122","OBJECT_ID":"2020-001AM","EPOCH":"2025-10-20T05:39:19.343520","MEAN_MOTION":15.06386413,"ECCENTRICITY":0.0001906,"INCLINATION":53.0561,"RA_OF_ASC_NODE":237.1369,"ARG_OF_PERICENTER":99.847,"MEAN_ANOMALY":260.2735,"EPHEMERIS_TYPE":0,"CLASSIFICATION_TYPE":"U","NORAD_CAT_ID":44949,"ELEMENT_SET_NO":999,"REV_AT_EPOCH":31895,"BSTAR":-0.00042577744,"MEAN_MOTION_DOT":-6.616e-5,"MEAN_MOTION_DDOT":0},{"OBJECT_NAME":"STARLINK-1080","OBJECT_ID":"2020-001AZ","EPOCH":"2025-10-20T05:36:40.737312","MEAN_MOTION":15.06378254,"ECCENTRICITY":0.0001272,"INCLINATION":53.0535,"RA_OF_ASC_NODE":217.1495,"ARG_OF_PERICENTER":92.2507,"MEAN_ANOMALY":267.8628,"EPHEMERIS_TYPE":0,"CLASSIFICATION_TYPE":"U","NORAD_CAT_ID":44961,"ELEMENT_SET_NO":999,"REV_AT_EPOCH":31924,"BSTAR":-0.00022098809,"MEAN_MOTION_DOT":-3.569e-5,"MEAN_MOTION_DDOT":0},{"OBJECT_NAME":"STARLINK-1090","OBJECT_ID":"2020-001BG","EPOCH":"2025-10-20T04:06:25.612128","MEAN_MOTION":15.06447677,"ECCENTRICITY":0.00012935,"INCLINATION":53.0548,"RA_OF_ASC_NODE":217.4328,"ARG_OF_PERICENTER":87.9345,"MEAN_ANOMALY":272.1792,"EPHEMERIS_TYPE":0,"CLASSIFICATION_TYPE":"U","NORAD_CAT_ID":44968,"ELEMENT_SET_NO":999,"REV_AT_EPOCH":31923,"BSTAR":0.0018076238,"MEAN_MOTION_DOT":0.0002678,"MEAN_MOTION_DDOT":0}]
