STARLINK-1054           
1 44759U 19074AY  25293.33336806  .00495339  00000+0  21691-2 0  9996
2 44759  53.0377  85.4145 0001442 219.2231 172.6533 15.82800587  5976
STARLINK-1056           
1 44761U 19074BA  25293.33336806  .00521695  12227-3  12949-2 0  9998
2 44761  53.0365  72.2111 0000781  14.6208  97.0022 15.95346430  6014
STARLINK-1060           
1 44765U 19074BE  25293.30206235  .00068290  00000+0  82286-3 0  9992
2 44765  53.0538 105.6975 0000654  18.4190 341.6846 15.60188771327461
STARLINK-1063           
1 44768U 19074BH  25293.10110358  .00002969  00000+0  21806-3 0  9995
2 44768  53.0529 137.7461 0001355  90.1057 270.0088 15.06411734327010
STARLINK-1067           
1 44771U 19074BL  25293.09005587  .00005117  00000+0  36207-3 0  9993
2 44771  53.0521 137.7964 0001450  99.1621 260.9532 15.06407456327003
STARLINK-1068           
1 44772U 19074BM  25293.01449314 -.00001574  00000+0 -86815-4 0  9992
2 44772  53.0534 118.1342 0001297  89.5420 270.5717 15.06392785327268
STARLINK-1112           
1 44925U 20001M   25293.33336806  .00133895  00000+0  21035-2 0  9991
2 44925  53.0511 218.2422 0004156 111.9900 243.6230 15.52707185  5926
STARLINK-1114           
1 44927U 20001P   25293.18588041  .00005336  00000+0  37668-3 0  9994
2 44927  53.0539 257.3666 0001558  89.1875 270.9292 15.06415955318672
STARLINK-1123           
1 44930U 20001S   25293.20061539  .00010097  00000+0  69538-3 0  9990
2 44930  53.0535 257.2978 0001432  89.7680 270.3473 15.06420856318679
STARLINK-1144           
1 44933U 20001V   25293.33336806  .00119061  00000+0  15778-2 0  9996
2 44933  53.0441 195.6962 0012944  58.2736  90.3065 15.57326085  5933
STARLINK-1091           
1 44940U 20001AC  25293.33336806  .00333361  53683-4  94271-3 0  9991
2 44940  53.0363 174.8637 0001938 179.6548 100.4451 15.92948592  5745
STARLINK-1094           
1 44941U 20001AD  25293.14716451  .00009331  00000+0  64361-3 0  9993
2 44941  53.0551 237.5389 0001743 100.1321 259.9865 15.06449003318944
STARLINK-1096           
1 44942U 20001AE  25293.33336806  .00205492  00000+0  81791-3 0  9999
2 44942  52.9902   2.0910 0006508   5.1779 162.6656 15.85534431  6010
STARLINK-1122           
1 44949U 20001AM  25293.23564055 -.00006616  00000+0 -42578-3 0  9993
2 44949  53.0561 237.1369 0001906  99.8470 260.2735 15.06386413318954
STARLINK-1080           
1 44961U 20001AZ  25293.23380483 -.00003569  00000+0 -22099-3 0  9998
2 44961  53.0535 217.1495 0001272  92.2507 267.8628 15.06378254319242
STARLINK-1090           
1 44968U 20001BG  25293.17112977  .00026780  00000+0  18076-2 0  9996
2 44968  53.0548 217.4328 0001293  87.9345 272.1792 15.06447677319231
